[{"OBJECT_NAME":"INSAT-3DS","OBJECT_ID":"2024-033A","EPOCH":"2026-06-26T16:21:54.452736","MEAN_MOTION":1.00270688,"ECCENTRICITY":0.0001468,"INCLINATION":0.0608,"RA_OF_ASC_NODE":100.8725,"ARG_OF_PERICENTER":344.9588,"MEAN_ANOMALY":156.5219,"EPHEMERIS_TYPE":0,"CLASSIFICATION_TYPE":"U","NORAD_CAT_ID":58990,"ELEMENT_SET_NO":999,"REV_AT_EPOCH":4716,"BSTAR":0,"MEAN_MOTION_DOT":-1.44e-6,"MEAN_MOTION_DDOT":0},{"OBJECT_NAME":"METEOR-M2 4","OBJECT_ID":"2024-039A","EPOCH":"2026-06-26T17:59:55.472640","MEAN_MOTION":14.22430436,"ECCENTRICITY":0.000779,"INCLINATION":98.7014,"RA_OF_ASC_NODE":136.9279,"ARG_OF_PERICENTER":135.2995,"MEAN_ANOMALY":224.8812,"EPHEMERIS_TYPE":0,"CLASSIFICATION_TYPE":"U","NORAD_CAT_ID":59051,"ELEMENT_SET_NO":999,"REV_AT_EPOCH":12062,"BSTAR":2.0744e-5,"MEAN_MOTION_DOT":2.0e-8,"MEAN_MOTION_DDOT":0},{"OBJECT_NAME":"GOES 19","OBJECT_ID":"2024-119A","EPOCH":"2026-06-26T13:54:26.044704","MEAN_MOTION":1.00272215,"ECCENTRICITY":6.12e-5,"INCLINATION":0.0028,"RA_OF_ASC_NODE":105.6097,"ARG_OF_PERICENTER":37.8145,"MEAN_ANOMALY":264.6931,"EPHEMERIS_TYPE":0,"CLASSIFICATION_TYPE":"U","NORAD_CAT_ID":60133,"ELEMENT_SET_NO":999,"REV_AT_EPOCH":705,"BSTAR":0,"MEAN_MOTION_DOT":-2.37e-6,"MEAN_MOTION_DDOT":0},{"OBJECT_NAME":"MTG-S1","OBJECT_ID":"2025-143A","EPOCH":"2026-06-24T17:46:37.650720","MEAN_MOTION":1.00400949,"ECCENTRICITY":5.853e-5,"INCLINATION":0.597,"RA_OF_ASC_NODE":340.6178,"ARG_OF_PERICENTER":288.6722,"MEAN_ANOMALY":269.7793,"EPHEMERIS_TYPE":0,"CLASSIFICATION_TYPE":"U","NORAD_CAT_ID":64723,"ELEMENT_SET_NO":999,"REV_AT_EPOCH":349,"BSTAR":0,"MEAN_MOTION_DOT":2.3e-7,"MEAN_MOTION_DDOT":0},{"OBJECT_NAME":"METOP-SGA1","OBJECT_ID":"2025-172A","EPOCH":"2026-06-26T17:22:15.120768","MEAN_MOTION":14.19816506,"ECCENTRICITY":0.0008117,"INCLINATION":98.6642,"RA_OF_ASC_NODE":237.2491,"ARG_OF_PERICENTER":26.0511,"MEAN_ANOMALY":334.1072,"EPHEMERIS_TYPE":0,"CLASSIFICATION_TYPE":"U","NORAD_CAT_ID":65159,"ELEMENT_SET_NO":999,"REV_AT_EPOCH":4514,"BSTAR":3.7947e-5,"MEAN_MOTION_DOT":3.7e-7,"MEAN_MOTION_DDOT":0},{"OBJECT_NAME":"FENGYUN 3H","OBJECT_ID":"2025-219A","EPOCH":"2026-06-26T18:22:09.696000","MEAN_MOTION":14.19921963,"ECCENTRICITY":0.0001512,"INCLINATION":98.6769,"RA_OF_ASC_NODE":118.3483,"ARG_OF_PERICENTER":70.5569,"MEAN_ANOMALY":289.5771,"EPHEMERIS_TYPE":0,"CLASSIFICATION_TYPE":"U","NORAD_CAT_ID":65815,"ELEMENT_SET_NO":999,"REV_AT_EPOCH":3874,"BSTAR":3.4793e-5,"MEAN_MOTION_DOT":3.1e-7,"MEAN_MOTION_DDOT":0}]
